{
    "links": {
        "self": "http://www.neowsapp.com/rest/v1/neo/3753605?api_key=iIulBulltgU6a56xZRHN4H3l9WmuAYTsLGpBGhQ2"
    },
    "id": "3753605",
    "neo_reference_id": "3753605",
    "name": "(2016 KS)",
    "designation": "2016 KS",
    "nasa_jpl_url": "http://ssd.jpl.nasa.gov/sbdb.cgi?sstr=3753605",
    "absolute_magnitude_h": 23.8,
    "estimated_diameter": {
        "kilometers": {
            "estimated_diameter_min": 0.046190746,
            "estimated_diameter_max": 0.1032856481
        },
        "meters": {
            "estimated_diameter_min": 46.1907460282,
            "estimated_diameter_max": 103.2856480504
        },
        "miles": {
            "estimated_diameter_min": 0.0287015901,
            "estimated_diameter_max": 0.0641787064
        },
        "feet": {
            "estimated_diameter_min": 151.544447199,
            "estimated_diameter_max": 338.8636855496
        }
    },
    "is_potentially_hazardous_asteroid": false,
    "close_approach_data": [
        {
            "close_approach_date": "2011-02-02",
            "close_approach_date_full": "2011-Feb-02 22:50",
            "epoch_date_close_approach": 1296687000000,
            "relative_velocity": {
                "kilometers_per_second": "8.3889181091",
                "kilometers_per_hour": "30200.1051928317",
                "miles_per_hour": "18765.1709182903"
            },
            "miss_distance": {
                "astronomical": "0.1566988815",
                "lunar": "60.9558649035",
                "kilometers": "23441818.903782405",
                "miles": "14566070.829130989"
            },
            "orbiting_body": "Earth"
        },
        {
            "close_approach_date": "2016-01-15",
            "close_approach_date_full": "2016-Jan-15 11:29",
            "epoch_date_close_approach": 1452857340000,
            "relative_velocity": {
                "kilometers_per_second": "5.5726311412",
                "kilometers_per_hour": "20061.472108306",
                "miles_per_hour": "12465.4185997416"
            },
            "miss_distance": {
                "astronomical": "0.312002948",
                "lunar": "121.369146772",
                "kilometers": "46674976.45452076",
                "miles": "29002485.505716088"
            },
            "orbiting_body": "Earth"
        },
        {
            "close_approach_date": "2016-05-21",
            "close_approach_date_full": "2016-May-21 09:15",
            "epoch_date_close_approach": 1463822100000,
            "relative_velocity": {
                "kilometers_per_second": "8.8274302161",
                "kilometers_per_hour": "31778.7487779172",
                "miles_per_hour": "19746.0786503675"
            },
            "miss_distance": {
                "astronomical": "0.0816663788",
                "lunar": "31.7682213532",
                "kilometers": "12217116.319093156",
                "miles": "7591364.0644553128"
            },
            "orbiting_body": "Earth"
        },
        {
            "close_approach_date": "2021-06-06",
            "close_approach_date_full": "2021-Jun-06 11:18",
            "epoch_date_close_approach": 1622978280000,
            "relative_velocity": {
                "kilometers_per_second": "16.583891273",
                "kilometers_per_hour": "59702.0085826891",
                "miles_per_hour": "37096.5063885048"
            },
            "miss_distance": {
                "astronomical": "0.314423338",
                "lunar": "122.310678482",
                "kilometers": "47037061.64309006",
                "miles": "29227474.809000428"
            },
            "orbiting_body": "Earth"
        }
    ],
    "orbital_data": {
        "orbit_id": "10",
        "orbit_determination_date": "2017-04-06 08:25:45",
        "first_observation_date": "2016-05-24",
        "last_observation_date": "2016-06-08",
        "data_arc_in_days": 15,
        "observations_used": 59,
        "orbit_uncertainty": "8",
        "minimum_orbit_intersection": ".0814229",
        "jupiter_tisserand_invariant": "4.648",
        "epoch_osculation": "2457538.5",
        "eccentricity": ".3279650324855141",
        "semi_major_axis": "1.414505374190571",
        "inclination": "10.13321214821362",
        "ascending_node_longitude": "81.0307109008108",
        "orbital_period": "614.4765724488458",
        "perihelion_distance": ".9505970731932259",
        "perihelion_argument": "104.4187718226499",
        "aphelion_distance": "1.878413675187916",
        "perihelion_time": "2457482.034218831755",
        "mean_anomaly": "33.0812957433954",
        "mean_motion": ".5858644839221586",
        "equinox": "J2000",
        "orbit_class": {
            "orbit_class_type": "APO",
            "orbit_class_description": "Near-Earth asteroid orbits which cross the Earth’s orbit similar to that of 1862 Apollo",
            "orbit_class_range": "a (semi-major axis) > 1.0 AU; q (perihelion) < 1.017 AU"
        }
    },
    "is_sentry_object": false
}